[
    {
        "CCSDS_OMM_VERS": "3.0",
        "COMMENT": "GENERATED VIA SPACE-TRACK.ORG API",
        "CREATION_DATE": "2025-04-13T03:46:00",
        "ORIGINATOR": "18 SPCS",
        "OBJECT_NAME": "NAVSTAR 71 (USA 256)",
        "OBJECT_ID": "2014-045A",
        "CENTER_NAME": "EARTH",
        "REF_FRAME": "TEME",
        "TIME_SYSTEM": "UTC",
        "MEAN_ELEMENT_THEORY": "SGP4",
        "EPOCH": "2025-04-12T06:41:54.925152",
        "MEAN_MOTION": "2.00556727",
        "ECCENTRICITY": "0.00279730",
        "INCLINATION": "55.0819",
        "RA_OF_ASC_NODE": "105.6550",
        "ARG_OF_PERICENTER": "117.5477",
        "MEAN_ANOMALY": "242.7658",
        "EPHEMERIS_TYPE": "0",
        "CLASSIFICATION_TYPE": "U",
        "NORAD_CAT_ID": "40105",
        "ELEMENT_SET_NO": "999",
        "REV_AT_EPOCH": "7743",
        "BSTAR": "0.00000000000000",
        "MEAN_MOTION_DOT": "0.00000042",
        "MEAN_MOTION_DDOT": "0.0000000000000",
        "SEMIMAJOR_AXIS": "26560.955",
        "PERIOD": "718.001",
        "APOAPSIS": "20257.119",
        "PERIAPSIS": "20108.521",
        "OBJECT_TYPE": "PAYLOAD",
        "RCS_SIZE": "LARGE",
        "COUNTRY_CODE": "US",
        "LAUNCH_DATE": "2014-08-02",
        "SITE": "AFETR",
        "DECAY_DATE": null,
        "FILE": "4700252",
        "GP_ID": "285482374",
        "TLE_LINE0": "0 NAVSTAR 71 (USA 256)",
        "TLE_LINE1": "1 40105U 14045A   25102.27910793  .00000042  00000-0  00000-0 0  9998",
        "TLE_LINE2": "2 40105  55.0819 105.6550 0027973 117.5477 242.7658  2.00556727 77431"
    }
]